49087,ONEWEB-0298,2021,109.29,148.0,+,87.92,Active,1,LEO,Kazakhstan,UK,Commercial,Communications,Soyuz,1 49087U 21075N   24012.48585210  .00000031  00000+0  45451-4 0  9991,2 49087  87.9210 182.1921 0001346  88.3563 271.7723 13.17648747116856,13.17648747,0.0001346,LEO
49088,ONEWEB-0299,2021,109.29,148.0,+,87.92,Active,1,LEO,Kazakhstan,UK,Commercial,Communications,Soyuz,1 49088U 21075P   24012.48741196 -.00000149  00000+0 -41656-3 0  9993,2 49088  87.9204 182.1680 0001276  84.8726 275.2551 13.17649039116837,13.17649039,0.0001276,LEO
49089,ONEWEB-0300,2021,109.72,148.0,+,87.9,Active,1,LEO,Kazakhstan,UK,Commercial,Communications,Soyuz,1 49089U 21075Q   24012.46570996 -.00000179  00000+0 -53319-3 0  9992,2 49089  87.9013 167.0771 0001277 107.5338 252.5930 13.12444215118893,13.12444215,0.0001277,LEO
49090,ONEWEB-0301,2021,109.72,148.0,+,87.9,Active,1,LEO,Kazakhstan,UK,Commercial,Communications,Soyuz,1 49090U 21075R   24012.44982861 -.00000404  00000+0 -11575-2 0  9998,2 49090  87.9012 167.0820 0001526 111.5178 248.6113 13.12441704118252,13.12441704,0.0001526,LEO
49091,ONEWEB-0302,2021,109.72,148.0,+,87.9,Active,1,LEO,Kazakhstan,UK,Commercial,Communications,Soyuz,1 49091U 21075S   24012.81831303 -.00000049  00000+0 -17291-3 0  9991,2 49091  87.9014 167.0058 0001464  83.7922 276.3373 13.12441172119285,13.12441172,0.0001464,LEO
49092,ONEWEB-0304,2021,109.29,148.0,+,87.92,Active,1,LEO,Kazakhstan,UK,Commercial,Communications,Soyuz,1 49092U 21075T   24012.53804544  .00000015  00000+0  59307-5 0  9995,2 49092  87.9209 182.1675 0001453  77.6261 282.5033 13.17647027116811,13.17647027,0.0001453,LEO
49093,ONEWEB-0305,2021,109.29,148.0,+,87.92,Active,1,LEO,Kazakhstan,UK,Commercial,Communications,Soyuz,1 49093U 21075U   24012.83388199 -.00000047  00000+0 -15295-3 0  9995,2 49093  87.9209 182.1005 0001144  74.7569 285.3689 13.17647364117852,13.17647364,0.0001144,LEO
49094,ONEWEB-0308,2021,109.72,148.0,+,87.9,Active,1,LEO,Kazakhstan,UK,Commercial,Communications,Soyuz,1 49094U 21075V   24012.50701427  .00000103  00000+0  24967-3 0  9990,2 49094  87.9013 167.0690 0001465 100.7476 259.3817 13.12441896118257,13.12441896,0.0001465,LEO
